[
    {
        "Altitude(m)": 704669.5880714458,
        "Argument of Periapsis(deg)": 0.0,
        "Eccentricity": 0.0,
        "Inclination(deg)": 45.0,
        "Latitude(deg)": 32.41873603504798,
        "Longitude(deg)": 69.2035949882253,
        "Mean Anomaly(deg)": 49.09089999999999,
        "RAAN(deg)": 130.0,
        "Satellite Name": "Constellation 1 575",
        "Satellite Number": 575,
        "Semi-Major Axis(m)": 7083131.272910544,
        "Time(s)": 0
    },
    {
        "Altitude(m)": 704675.5378064099,
        "Argument of Periapsis(deg)": 5.994800624540561e-05,
        "Eccentricity": 0.0,
        "Inclination(deg)": 45.0,
        "Latitude(deg)": 32.45214204713368,
        "Longitude(deg)": 69.2595540565842,
        "Mean Anomaly(deg)": 49.1516011402499,
        "RAAN(deg)": 129.99994341083445,
        "Satellite Name": "Constellation 1 575",
        "Satellite Number": 575,
        "Semi-Major Axis(m)": 7083131.272910544,
        "Time(s)": 1
    },
    {
        "Altitude(m)": 704681.4890589473,
        "Argument of Periapsis(deg)": 0.00011989601249081122,
        "Eccentricity": 0.0,
        "Inclination(deg)": 45.0,
        "Latitude(deg)": 32.48551921799149,
        "Longitude(deg)": 69.31555742170906,
        "Mean Anomaly(deg)": 49.2123022804998,
        "RAAN(deg)": 129.99988682166884,
        "Satellite Name": "Constellation 1 575",
        "Satellite Number": 575,
        "Semi-Major Axis(m)": 7083131.272910544,
        "Time(s)": 2
    },
    {
        "Altitude(m)": 704687.4417898799,
        "Argument of Periapsis(deg)": 0.00017984401873621686,
        "Eccentricity": 0.0,
        "Inclination(deg)": 45.0,
        "Latitude(deg)": 32.51886748997033,
        "Longitude(deg)": 69.37160513507068,
        "Mean Anomaly(deg)": 49.27300342074971,
        "RAAN(deg)": 129.99983023250329,
        "Satellite Name": "Constellation 1 575",
        "Satellite Number": 575,
        "Semi-Major Axis(m)": 7083131.272910544,
        "Time(s)": 3
    },
    {
        "Altitude(m)": 704693.3959600296,
        "Argument of Periapsis(deg)": 0.00023979202498162244,
        "Eccentricity": 0.0,
        "Inclination(deg)": 45.0,
        "Latitude(deg)": 32.55218680534677,
        "Longitude(deg)": 69.42769724802312,
        "Mean Anomaly(deg)": 49.33370456099959,
        "RAAN(deg)": 129.99977364333773,
        "Satellite Name": "Constellation 1 575",
        "Satellite Number": 575,
        "Semi-Major Axis(m)": 7083131.272910544,
        "Time(s)": 4
    },
    {
        "Altitude(m)": 704699.3515302324,
        "Argument of Periapsis(deg)": 0.00029974003122702807,
        "Eccentricity": 0.0,
        "Inclination(deg)": 45.0,
        "Latitude(deg)": 32.585477106325065,
        "Longitude(deg)": 69.48383381180281,
        "Mean Anomaly(deg)": 49.394405701249504,
        "RAAN(deg)": 129.99971705417215,
        "Satellite Name": "Constellation 1 575",
        "Satellite Number": 575,
        "Semi-Major Axis(m)": 7083131.272910544,
        "Time(s)": 5
    },
    {
        "Altitude(m)": 704705.3084613396,
        "Argument of Periapsis(deg)": 0.00035968803747243373,
        "Eccentricity": 0.0,
        "Inclination(deg)": 45.0,
        "Latitude(deg)": 32.61873833503716,
        "Longitude(deg)": 69.54001487752758,
        "Mean Anomaly(deg)": 49.45510684149939,
        "RAAN(deg)": 129.9996604650066,
        "Satellite Name": "Constellation 1 575",
        "Satellite Number": 575,
        "Semi-Major Axis(m)": 7083131.272910544,
        "Time(s)": 6
    },
    {
        "Altitude(m)": 704711.2667142018,
        "Argument of Periapsis(deg)": 0.00041963604371783933,
        "Eccentricity": 0.0,
        "Inclination(deg)": 45.0,
        "Latitude(deg)": 32.651970433542665,
        "Longitude(deg)": 69.59624032809836,
        "Mean Anomaly(deg)": 49.515807981749276,
        "RAAN(deg)": 129.999603875841,
        "Satellite Name": "Constellation 1 575",
        "Satellite Number": 575,
        "Semi-Major Axis(m)": 7083131.272910544,
        "Time(s)": 7
    },
    {
        "Altitude(m)": 704717.2262496835,
        "Argument of Periapsis(deg)": 0.0004795840499632449,
        "Eccentricity": 0.0,
        "Inclination(deg)": 45.0,
        "Latitude(deg)": 32.6851733438295,
        "Longitude(deg)": 69.65251055058738,
        "Mean Anomaly(deg)": 49.57650912199916,
        "RAAN(deg)": 129.99954728667544,
        "Satellite Name": "Constellation 1 575",
        "Satellite Number": 575,
        "Semi-Major Axis(m)": 7083131.272910544,
        "Time(s)": 8
    },
    {
        "Altitude(m)": 704723.1870286628,
        "Argument of Periapsis(deg)": 0.0005395320562086505,
        "Eccentricity": 0.0,
        "Inclination(deg)": 45.0,
        "Latitude(deg)": 32.718347007813,
        "Longitude(deg)": 69.7088254276536,
        "Mean Anomaly(deg)": 49.63721026224908,
        "RAAN(deg)": 129.99949069750988,
        "Satellite Name": "Constellation 1 575",
        "Satellite Number": 575,
        "Semi-Major Axis(m)": 7083131.272910544,
        "Time(s)": 9
    },
    {
        "Altitude(m)": 704729.1490120217,
        "Argument of Periapsis(deg)": 0.0005994800624540561,
        "Eccentricity": 0.0,
        "Inclination(deg)": 45.0,
        "Latitude(deg)": 32.75149136733665,
        "Longitude(deg)": 69.76518500993087,
        "Mean Anomaly(deg)": 49.69791140249902,
        "RAAN(deg)": 129.9994341083443,
        "Satellite Name": "Constellation 1 575",
        "Satellite Number": 575,
        "Semi-Major Axis(m)": 7083131.272910544,
        "Time(s)": 10
    },
    {
        "Altitude(m)": 704735.112160664,
        "Argument of Periapsis(deg)": 0.0006594280686994618,
        "Eccentricity": 0.0,
        "Inclination(deg)": 45.0,
        "Latitude(deg)": 32.78460636417183,
        "Longitude(deg)": 69.82158934792957,
        "Mean Anomaly(deg)": 49.7586125427489,
        "RAAN(deg)": 129.99937751917875,
        "Satellite Name": "Constellation 1 575",
        "Satellite Number": 575,
        "Semi-Major Axis(m)": 7083131.272910544,
        "Time(s)": 11
    },
    {
        "Altitude(m)": 704741.0764354896,
        "Argument of Periapsis(deg)": 0.0007193760749448675,
        "Eccentricity": 0.0,
        "Inclination(deg)": 45.0,
        "Latitude(deg)": 32.81769194001809,
        "Longitude(deg)": 69.87803849203569,
        "Mean Anomaly(deg)": 49.81931368299879,
        "RAAN(deg)": 129.99932093001317,
        "Satellite Name": "Constellation 1 575",
        "Satellite Number": 575,
        "Semi-Major Axis(m)": 7083131.272910544,
        "Time(s)": 12
    },
    {
        "Altitude(m)": 704747.0417974133,
        "Argument of Periapsis(deg)": 0.000779324081190273,
        "Eccentricity": 0.0,
        "Inclination(deg)": 45.0,
        "Latitude(deg)": 32.85074803650309,
        "Longitude(deg)": 69.93453249250994,
        "Mean Anomaly(deg)": 49.88001482324867,
        "RAAN(deg)": 129.9992643408476,
        "Satellite Name": "Constellation 1 575",
        "Satellite Number": 575,
        "Semi-Major Axis(m)": 7083131.272910544,
        "Time(s)": 13
    },
    {
        "Altitude(m)": 704753.008207371,
        "Argument of Periapsis(deg)": 0.0008392720874356787,
        "Eccentricity": 0.0,
        "Inclination(deg)": 45.0,
        "Latitude(deg)": 32.883774595182636,
        "Longitude(deg)": 69.99107139948671,
        "Mean Anomaly(deg)": 49.94071596349858,
        "RAAN(deg)": 129.99920775168204,
        "Satellite Name": "Constellation 1 575",
        "Satellite Number": 575,
        "Semi-Major Axis(m)": 7083131.272910544,
        "Time(s)": 14
    },
    {
        "Altitude(m)": 704758.9756262957,
        "Argument of Periapsis(deg)": 0.0008992200936810842,
        "Eccentricity": 0.0,
        "Inclination(deg)": 45.0,
        "Latitude(deg)": 32.91677155754073,
        "Longitude(deg)": 70.04765509487584,
        "Mean Anomaly(deg)": 50.001417103748466,
        "RAAN(deg)": 129.99915116251645,
        "Satellite Name": "Constellation 1 575",
        "Satellite Number": 575,
        "Semi-Major Axis(m)": 7083131.272910544,
        "Time(s)": 15
    },
    {
        "Altitude(m)": 704764.9440151432,
        "Argument of Periapsis(deg)": 0.0009591680999264898,
        "Eccentricity": 0.0,
        "Inclination(deg)": 45.0,
        "Latitude(deg)": 32.94973886498998,
        "Longitude(deg)": 70.10428396475052,
        "Mean Anomaly(deg)": 50.062118243998384,
        "RAAN(deg)": 129.9990945733509,
        "Satellite Name": "Constellation 1 575",
        "Satellite Number": 575,
        "Semi-Major Axis(m)": 7083131.272910544,
        "Time(s)": 16
    },
    {
        "Altitude(m)": 704770.9133348751,
        "Argument of Periapsis(deg)": 0.0010191161061718953,
        "Eccentricity": 0.0,
        "Inclination(deg)": 45.0,
        "Latitude(deg)": 32.98267645887103,
        "Longitude(deg)": 70.16095789076302,
        "Mean Anomaly(deg)": 50.122819384248274,
        "RAAN(deg)": 129.99903798418532,
        "Satellite Name": "Constellation 1 575",
        "Satellite Number": 575,
        "Semi-Major Axis(m)": 7083131.272910544,
        "Time(s)": 17
    },
    {
        "Altitude(m)": 704776.883546461,
        "Argument of Periapsis(deg)": 0.001079064112417301,
        "Eccentricity": 0.0,
        "Inclination(deg)": 45.0,
        "Latitude(deg)": 33.01558428045319,
        "Longitude(deg)": 70.2176769225327,
        "Mean Anomaly(deg)": 50.183520524498185,
        "RAAN(deg)": 129.99898139501977,
        "Satellite Name": "Constellation 1 575",
        "Satellite Number": 575,
        "Semi-Major Axis(m)": 7083131.272910544,
        "Time(s)": 18
    }
]